NORAD_CAT_ID,OBJECT_NAME,OBJECT_TYPE,EPOCH,MEAN_MOTION,ECCENTRICITY,INCLINATION,RA_OF_ASC_NODE,ARG_OF_PERICENTER,MEAN_ANOMALY,BSTAR,MEAN_MOTION_DOT,MEAN_MOTION_DDOT,TLE_LINE0,TLE_LINE1,TLE_LINE2,SEMIMAJOR_AXIS,PERIOD,APOGEE,PERIGEE,DECAYED
52359.0,STARLINK-3853,PAYLOAD,2022-08-18 08:00:01,15.08854852,0.0001903,53.2175,272.151,44.5377,68.1454,-0.0013657,-0.00021967,0.0,0 STARLINK-3853,1 52359U 22045AE  22230.33334491 -.00021967  00000-0 -13657-2 0  9997,2 52359  53.2175 272.1510 0001903  44.5377  68.1454 15.08854852 19622,6917.835,95.437,541.016,538.384,0.0
52359.0,STARLINK-3853,PAYLOAD,2022-08-18 14:00:01,15.08828288,0.0001989,53.2175,271.0294,40.8835,350.50699999999995,0.0029559,0.00047055,0.0,0 STARLINK-3853,1 52359U 22045AE  22230.58334491  .00047055  00000-0  29559-2 0  9996,2 52359  53.2175 271.0294 0001989  40.8835 350.5070 15.08828288  1303,6917.916,95.438,541.1569999999998,538.405,0.0
52359.0,STARLINK-3853,PAYLOAD,2022-08-18 22:00:00,15.08845047,0.0001851,53.2178,269.5313,45.3795,357.6182,0.00086895,0.0001357,0.0,0 STARLINK-3853,1 52359U 22045AE  22230.91667824  .00013570  00000-0  86895-3 0  9994,2 52359  53.2178 269.5313 0001851  45.3795 357.6182 15.08845047  1307,6917.865,95.437,541.01,538.4490000000002,0.0
52359.0,STARLINK-3853,PAYLOAD,2022-08-19 14:00:01,15.08824602,0.0002149,53.2179,266.5403,42.8013,23.3991,0.0017439,0.00027564,0.0,0 STARLINK-3853,1 52359U 22045AE  22231.58334491  .00027564  00000-0  17439-2 0  9994,2 52359  53.2179 266.5403 0002149  42.8013  23.3991 15.08824602  1300,6917.927,95.439,541.279,538.306,0.0
52359.0,STARLINK-3853,PAYLOAD,2022-08-19 16:00:00,15.08853966,0.0002133999999999,53.2178,266.1657,43.3959,115.6936,-0.0022116999999999,-0.0003532999999999,0.0,0 STARLINK-3853,1 52359U 22045AE  22231.66667824 -.00035330  00000-0 -22117-2 0  9993,2 52359  53.2178 266.1657 0002134  43.3959 115.6936 15.08853966 19820,6917.8380000000025,95.437,541.179,538.226,0.0
52359.0,STARLINK-3853,PAYLOAD,2022-08-19 22:00:00,15.08808748,0.0001931,53.2182,265.0422,46.5041,31.2931,0.00087505,0.00013654,0.0,0 STARLINK-3853,1 52359U 22045AE  22231.91667824  .00013654  00000-0  87505-3 0  9997,2 52359  53.2182 265.0422 0001931  46.5041  31.2931 15.08808748  1304,6917.976,95.44,541.177,538.505,0.0
52359.0,STARLINK-3853,PAYLOAD,2022-08-20 14:00:01,15.08807628,0.0002165,53.2182,262.0514,41.8109,59.1206,0.0021065999999999,0.00033368,0.0,0 STARLINK-3853,1 52359U 22045AE  22232.58334491  .00033368  00000-0  21066-2 0  9995,2 52359  53.2182 262.0514 0002165  41.8109  59.1206 15.08807628  1306,6917.979,95.44,541.342,538.347,0.0
52359.0,STARLINK-3853,PAYLOAD,2022-08-20 16:00:00,15.08832233,0.0002137,53.2182,261.6769,43.0332,150.7838,-0.00089689,-0.00014531,0.0,0 STARLINK-3853,1 52359U 22045AE  22232.66667824 -.00014531  00000-0 -89689-3 0  9992,2 52359  53.2182 261.6769 0002137  43.0332 150.7838 15.08832233 19975,6917.904,95.438,541.247,538.2909999999998,0.0
52359.0,STARLINK-3853,PAYLOAD,2022-08-20 22:00:00,15.08804918,0.0001972,53.2184,260.5535,46.7242,65.7864,0.0024411999999999,0.00038741,0.0,0 STARLINK-3853,1 52359U 22045AE  22232.91667824  .00038741  00000-0  24412-2 0  9999,2 52359  53.2184 260.5535 0001972  46.7242  65.7864 15.08804918  1303,6917.988,95.44,541.217,538.488,0.0
52359.0,STARLINK-3853,PAYLOAD,2022-08-21 14:00:01,15.08820817,0.0002203,53.2181,257.5626,42.69,92.9699,0.0014454,0.00022779,0.0,0 STARLINK-3853,1 52359U 22045AE  22233.58334491  .00022779  00000-0  14454-2 0  9993,2 52359  53.2181 257.5626 0002203  42.6900  92.9699 15.08820817  1305,6917.939,95.439,541.328,538.28,0.0
52359.0,STARLINK-3853,PAYLOAD,2022-08-21 22:00:00,15.08811542,0.0001995,53.2182,256.0647,47.8213,99.4283,0.0024499,0.00038888,0.0,0 STARLINK-3853,1 52359U 22045AE  22233.91667824  .00038888  00000-0  24499-2 0  9997,2 52359  53.2182 256.0647 0001995  47.8213  99.4283 15.08811542  1300,6917.967,95.439,541.2130000000002,538.452,0.0
52359.0,STARLINK-3853,PAYLOAD,2022-08-22 12:00:00,15.08814451,0.0002207,53.218,253.4483,44.3512,33.1759,0.0027052,0.00042999,0.0,0 STARLINK-3853,1 52359U 22045AE  22234.50001157  .00042999  00000-0  27052-2 0  9990,2 52359  53.2180 253.4483 0002207  44.3512  33.1759 15.08814451  1303,6917.958000000001,95.439,541.35,538.297,0.0
52359.0,STARLINK-3853,PAYLOAD,2022-08-22 22:00:00,15.0881699,0.0002013,53.2177,251.576,49.4172,132.5979,0.0024027,0.00038134,0.0,0 STARLINK-3853,1 52359U 22045AE  22234.91667824  .00038134  00000-0  24027-2 0  9999,2 52359  53.2177 251.5760 0002013  49.4172 132.5979 15.08816990  1307,6917.951,95.439,541.2080000000002,538.423,0.0
52359.0,STARLINK-3853,PAYLOAD,2022-08-23 06:00:00,15.08850634,0.0002142,53.2176,250.081,48.4758,145.1232,-0.0016896,-0.00027086,0.0,0 STARLINK-3853,1 52359U 22045AE  22235.25001157 -.00027086  00000-0 -16896-2 0  9999,2 52359  53.2176 250.0810 0002142  48.4758 145.1232 15.08850634 20360,6917.848000000001,95.437,541.195,538.231,0.0
52359.0,STARLINK-3853,PAYLOAD,2022-08-23 14:00:01,15.088412300000002,0.0002221,53.2171,248.585,45.9403,159.252,-2.9903e-05,-7.64e-06,0.0,0 STARLINK-3853,1 52359U 22045AE  22235.58334491 -.00000764  00000-0 -29903-4 0  9994,2 52359  53.2171 248.5850 0002221  45.9403 159.2520 15.08841230  1309,6917.877,95.437,541.278,538.205,0.0
52359.0,STARLINK-3853,PAYLOAD,2022-08-23 22:00:01,15.088200199999998,0.000206,53.2169,247.0871,51.2905,165.5673,0.0023655,0.0003753999999999,0.0,0 STARLINK-3853,1 52359U 22045AE  22235.91668981  .00037540  00000-0  23655-2 0  9991,2 52359  53.2169 247.0871 0002060  51.2905 165.5673 15.08820020 20462,6917.941,95.439,541.232,538.381,0.0
52359.0,STARLINK-3853,PAYLOAD,2022-08-24 14:00:01,15.08848496,0.0002254999999999,53.2165,244.096,47.3178,192.6595,-0.00072039,-0.00011738,0.0,0 STARLINK-3853,1 52359U 22045AE  22236.58334491 -.00011738  00000-0 -72039-3 0  9995,2 52359  53.2165 244.0960 0002255  47.3178 192.6595 15.08848496  1301,6917.854,95.437,541.279,538.159,0.0
52359.0,STARLINK-3853,PAYLOAD,2022-08-24 22:00:00,15.08823035,0.0002138,53.2164,242.598,52.6417,198.9435,0.0024321,0.00038614,0.0,0 STARLINK-3853,1 52359U 22045AE  22236.91667824  .00038614  00000-0  24321-2 0  9991,2 52359  53.2164 242.5980 0002138  52.6417 198.9435 15.08823035  1304,6917.932,95.439,541.276,538.318,0.0
52359.0,STARLINK-3853,PAYLOAD,2022-08-25 14:00:01,15.08857323,0.0002325,53.2162,239.6068,48.1561,226.6191,-0.0012199,-0.00019661,0.0,0 STARLINK-3853,1 52359U 22045AE  22237.58334491 -.00019661  00000-0 -12199-2 0  9999,2 52359  53.2162 239.6068 0002325  48.1561 226.6191 15.08857323  1309,6917.8269999999975,95.436,541.3009999999998,538.0840000000002,0.0
52359.0,STARLINK-3853,PAYLOAD,2022-08-25 22:00:00,15.0883611,0.0002237,53.2167,238.1077,54.5344,231.8548,0.0014098,0.00022218,0.0,0 STARLINK-3853,1 52359U 22045AE  22237.91667824  .00022218  00000-0  14098-2 0  9995,2 52359  53.2167 238.1077 0002237  54.5344 231.8548 15.08836110  1305,6917.892,95.438,541.305,538.21,0.0
52359.0,STARLINK-3853,PAYLOAD,2022-08-26 06:00:00,15.08856676,0.0002420999999999,53.2164,236.6139,50.8967,247.0926,-0.0010953,-0.00017687,0.0,0 STARLINK-3853,1 52359U 22045AE  22238.25001157 -.00017687  00000-0 -10953-2 0  9996,2 52359  53.2164 236.6139 0002421  50.8967 247.0926 15.08856676 20814,6917.829000000002,95.436,541.369,538.02,0.0
52359.0,STARLINK-3853,PAYLOAD,2022-08-26 14:00:01,15.0886657,0.0002417,53.2165,235.1173,48.8273,260.826,-0.0015724,-0.00025245,0.0,0 STARLINK-3853,1 52359U 22045AE  22238.58335648 -.00025245  00000-0 -15724-2 0  9997,2 52359  53.2165 235.1173 0002417  48.8273 260.8260 15.08866570  1300,6917.799,95.436,541.336,537.992,0.0
52359.0,STARLINK-3853,PAYLOAD,2022-08-26 22:00:00,15.088466199999996,0.0002290999999999,53.2168,233.6194,53.4255,267.785,-0.00053489,-8.793e-05,0.0,0 STARLINK-3853,1 52359U 22045AE  22238.91667824 -.00008793  00000-0 -53489-3 0  9998,2 52359  53.2168 233.6194 0002291  53.4255 267.7850 15.08846620  1306,6917.86,95.437,541.31,538.14,0.0
52359.0,STARLINK-3853,PAYLOAD,2022-08-27 14:00:01,15.08846231,0.000243,53.2171,230.6279,48.3142,296.0737,-0.001911,-0.0003058,0.0,0 STARLINK-3853,1 52359U 22045AE  22239.58334491 -.00030580  00000-0 -19110-2 0  9994,2 52359  53.2171 230.6279 0002430  48.3142 296.0737 15.08846231  1301,6917.861,95.437,541.4069999999998,538.045,0.0
52359.0,STARLINK-3853,PAYLOAD,2022-08-27 22:00:00,15.08817584,0.0002339,53.2175,229.1302,53.913,302.0714,0.0025089,0.00039843,0.0,0 STARLINK-3853,1 52359U 22045AE  22239.91667824  .00039843  00000-0  25089-2 0  9991,2 52359  53.2175 229.1302 0002339  53.9130 302.0714 15.08817584  1304,6917.949000000001,95.439,541.432,538.196,0.0
52359.0,STARLINK-3853,PAYLOAD,2022-08-28 14:00:01,15.08859375,0.0002489,53.2177,226.1386,50.236,328.9255,-0.0019562,-0.00031305,0.0,0 STARLINK-3853,1 52359U 22045AE  22240.58334491 -.00031305  00000-0 -19562-2 0  9993,2 52359  53.2177 226.1386 0002489  50.2360 328.9255 15.08859375  1307,6917.821,95.436,541.408,537.964,0.0
52359.0,STARLINK-3853,PAYLOAD,2022-08-28 22:00:00,15.08841414,0.0002358,53.2181,224.6411,55.0596,335.7072,0.00047744,7.319e-05,0.0,0 STARLINK-3853,1 52359U 22045AE  22240.91667824  .00007319  00000-0  47744-3 0  9999,2 52359  53.2181 224.6411 0002358  55.0596 335.7072 15.08841414  1301,6917.876,95.437,541.372,538.11,0.0
52359.0,STARLINK-3853,PAYLOAD,2022-08-29 06:00:02,15.08831403,0.0002484999999999,53.2182,223.1464,50.9177,351.5169,-0.0013394,-0.00021538,0.0,0 STARLINK-3853,1 52359U 22045AE  22241.25002315 -.00021538  00000-0 -13394-2 0  9999,2 52359  53.2182 223.1464 0002485  50.9177 351.5169 15.08831403 21272,6917.906999999997,95.438,541.491,538.053,0.0
52359.0,STARLINK-3853,PAYLOAD,2022-08-29 14:00:01,15.08840694,0.0002421999999999,53.2181,221.6495,50.6062,3.3357,-0.0020884,-0.00033374,0.0,0 STARLINK-3853,1 52359U 22045AE  22241.58334491 -.00033374  00000-0 -20884-2 0  9991,2 52359  53.2181 221.6495 0002422  50.6062   3.3357 15.08840694  1304,6917.878000000002,95.438,541.419,538.068,0.0
